CCSDS_OMM_VERS = 2.0
CREATION_DATE  = 
ORIGINATOR     = 

OBJECT_NAME    = UNKNOWN
OBJECT_ID      = 
CENTER_NAME    = EARTH
REF_FRAME      = TEME
TIME_SYSTEM    = UTC
MEAN_ELEMENT_THEORY = SGP/SGP4

EPOCH          = 2026-01-21T08:14:53.321280
MEAN_MOTION    = 12.45543968
ECCENTRICITY   = .07175385
INCLINATION    = 83.4055
RA_OF_ASC_NODE = 63.2304
ARG_OF_PERICENTER = 253.7110
MEAN_ANOMALY   = 98.3943

EPHEMERIS_TYPE = 0
CLASSIFICATION_TYPE = U
NORAD_CAT_ID   = 270343
ELEMENT_SET_NO = 999
REV_AT_EPOCH   = 19897
BSTAR          = .43427269E-2
MEAN_MOTION_DOT = .1573E-4
MEAN_MOTION_DDOT = 0

CCSDS_OMM_VERS = 2.0
CREATION_DATE  = 
ORIGINATOR     = 

OBJECT_NAME    = UNKNOWN
OBJECT_ID      = 
CENTER_NAME    = EARTH
REF_FRAME      = TEME
TIME_SYSTEM    = UTC
MEAN_ELEMENT_THEORY = SGP/SGP4

EPOCH          = 2026-02-03T14:16:25.627584
MEAN_MOTION    = 13.06570587
ECCENTRICITY   = .02611392
INCLINATION    = 105.8358
RA_OF_ASC_NODE = 166.3640
ARG_OF_PERICENTER = 22.6006
MEAN_ANOMALY   = 338.6339

EPHEMERIS_TYPE = 0
CLASSIFICATION_TYPE = U
NORAD_CAT_ID   = 270344
ELEMENT_SET_NO = 999
REV_AT_EPOCH   = 20899
BSTAR          = .12270391E-2
MEAN_MOTION_DOT = .398E-5
MEAN_MOTION_DDOT = 0

CCSDS_OMM_VERS = 2.0
CREATION_DATE  = 
ORIGINATOR     = 

OBJECT_NAME    = UNKNOWN
OBJECT_ID      = 
CENTER_NAME    = EARTH
REF_FRAME      = TEME
TIME_SYSTEM    = UTC
MEAN_ELEMENT_THEORY = SGP/SGP4

EPOCH          = 2026-01-22T10:07:49.339776
MEAN_MOTION    = 12.04074439
ECCENTRICITY   = .0905149
INCLINATION    = 83.3057
RA_OF_ASC_NODE = 274.7095
ARG_OF_PERICENTER = 172.8860
MEAN_ANOMALY   = 188.6127

EPHEMERIS_TYPE = 0
CLASSIFICATION_TYPE = U
NORAD_CAT_ID   = 270345
ELEMENT_SET_NO = 999
REV_AT_EPOCH   = 19207
BSTAR          = .32023741E-3
MEAN_MOTION_DOT = .106E-5
MEAN_MOTION_DDOT = 0

CCSDS_OMM_VERS = 2.0
CREATION_DATE  = 
ORIGINATOR     = 

OBJECT_NAME    = UNKNOWN
OBJECT_ID      = 
CENTER_NAME    = EARTH
REF_FRAME      = TEME
TIME_SYSTEM    = UTC
MEAN_ELEMENT_THEORY = SGP/SGP4

EPOCH          = 2026-01-25T03:57:24.107904
MEAN_MOTION    = 12.98366753
ECCENTRICITY   = .00319595
INCLINATION    = 90.2355
RA_OF_ASC_NODE = 353.7606
ARG_OF_PERICENTER = 50.7403
MEAN_ANOMALY   = 309.6546

EPHEMERIS_TYPE = 0
CLASSIFICATION_TYPE = U
NORAD_CAT_ID   = 270346
ELEMENT_SET_NO = 999
REV_AT_EPOCH   = 19980
BSTAR          = -.59876035E-3
MEAN_MOTION_DOT = -.169E-5
MEAN_MOTION_DDOT = 0

CCSDS_OMM_VERS = 2.0
CREATION_DATE  = 
ORIGINATOR     = 

OBJECT_NAME    = UNKNOWN
OBJECT_ID      = 
CENTER_NAME    = EARTH
REF_FRAME      = TEME
TIME_SYSTEM    = UTC
MEAN_ELEMENT_THEORY = SGP/SGP4

EPOCH          = 2026-02-08T05:44:06.052416
MEAN_MOTION    = 13.21071402
ECCENTRICITY   = .00241649
INCLINATION    = 82.5448
RA_OF_ASC_NODE = 218.8291
ARG_OF_PERICENTER = 24.8382
MEAN_ANOMALY   = 335.3900

EPHEMERIS_TYPE = 0
CLASSIFICATION_TYPE = U
NORAD_CAT_ID   = 270349
ELEMENT_SET_NO = 999
REV_AT_EPOCH   = 18880
BSTAR          = .69431928E-3
MEAN_MOTION_DOT = .297E-5
MEAN_MOTION_DDOT = 0

CCSDS_OMM_VERS = 2.0
CREATION_DATE  = 
ORIGINATOR     = 

OBJECT_NAME    = UNKNOWN
OBJECT_ID      = 
CENTER_NAME    = EARTH
REF_FRAME      = TEME
TIME_SYSTEM    = UTC
MEAN_ELEMENT_THEORY = SGP/SGP4

EPOCH          = 2026-02-14T07:51:50.788224
MEAN_MOTION    = 2.00749110
ECCENTRICITY   = .74825043
INCLINATION    = 62.1335
RA_OF_ASC_NODE = 100.7005
ARG_OF_PERICENTER = 48.7775
MEAN_ANOMALY   = 354.9664

EPHEMERIS_TYPE = 0
CLASSIFICATION_TYPE = U
NORAD_CAT_ID   = 270365
ELEMENT_SET_NO = 999
REV_AT_EPOCH   = 1864
BSTAR          = .45512846E-2
MEAN_MOTION_DOT = .6081E-4
MEAN_MOTION_DDOT = 0

CCSDS_OMM_VERS = 2.0
CREATION_DATE  = 
ORIGINATOR     = 

OBJECT_NAME    = UNKNOWN
OBJECT_ID      = 
CENTER_NAME    = EARTH
REF_FRAME      = TEME
TIME_SYSTEM    = UTC
MEAN_ELEMENT_THEORY = SGP/SGP4

EPOCH          = 2026-02-04T03:47:19.581792
MEAN_MOTION    = 13.15179399
ECCENTRICITY   = .01444186
INCLINATION    = 103.0153
RA_OF_ASC_NODE = 183.8918
ARG_OF_PERICENTER = 199.9313
MEAN_ANOMALY   = 159.6110

EPHEMERIS_TYPE = 0
CLASSIFICATION_TYPE = U
NORAD_CAT_ID   = 270376
ELEMENT_SET_NO = 999
REV_AT_EPOCH   = 14965
BSTAR          = .16644964E-1
MEAN_MOTION_DOT = .6522E-4
MEAN_MOTION_DDOT = 0

CCSDS_OMM_VERS = 2.0
CREATION_DATE  = 
ORIGINATOR     = 

OBJECT_NAME    = UNKNOWN
OBJECT_ID      = 
CENTER_NAME    = EARTH
REF_FRAME      = TEME
TIME_SYSTEM    = UTC
MEAN_ELEMENT_THEORY = SGP/SGP4

EPOCH          = 2026-02-15T16:24:50.601600
MEAN_MOTION    = 13.20231603
ECCENTRICITY   = .04208086
INCLINATION    = 82.5470
RA_OF_ASC_NODE = 291.5929
ARG_OF_PERICENTER = 90.6064
MEAN_ANOMALY   = 274.3282

EPHEMERIS_TYPE = 0
CLASSIFICATION_TYPE = U
NORAD_CAT_ID   = 270378
ELEMENT_SET_NO = 999
REV_AT_EPOCH   = 15003
BSTAR          = .15126631E-2
MEAN_MOTION_DOT = .986E-5
MEAN_MOTION_DDOT = 0

CCSDS_OMM_VERS = 2.0
CREATION_DATE  = 
ORIGINATOR     = 

OBJECT_NAME    = UNKNOWN
OBJECT_ID      = 
CENTER_NAME    = EARTH
REF_FRAME      = TEME
TIME_SYSTEM    = UTC
MEAN_ELEMENT_THEORY = SGP/SGP4

EPOCH          = 2026-02-15T22:54:21.135456
MEAN_MOTION    = 14.19715031
ECCENTRICITY   = .00119474
INCLINATION    = 81.2090
RA_OF_ASC_NODE = 47.9166
ARG_OF_PERICENTER = 310.7839
MEAN_ANOMALY   = 49.2300

EPHEMERIS_TYPE = 0
CLASSIFICATION_TYPE = U
NORAD_CAT_ID   = 270387
ELEMENT_SET_NO = 999
REV_AT_EPOCH   = 14284
BSTAR          = .79511176E-3
MEAN_MOTION_DOT = .1694E-4
MEAN_MOTION_DDOT = 0

CCSDS_OMM_VERS = 2.0
CREATION_DATE  = 
ORIGINATOR     = 

OBJECT_NAME    = UNKNOWN
OBJECT_ID      = 
CENTER_NAME    = EARTH
REF_FRAME      = TEME
TIME_SYSTEM    = UTC
MEAN_ELEMENT_THEORY = SGP/SGP4

EPOCH          = 2026-02-17T16:56:42.311328
MEAN_MOTION    = 14.03199489
ECCENTRICITY   = .01237178
INCLINATION    = 89.1862
RA_OF_ASC_NODE = 301.5954
ARG_OF_PERICENTER = 243.2827
MEAN_ANOMALY   = 115.5648

EPHEMERIS_TYPE = 0
CLASSIFICATION_TYPE = U
NORAD_CAT_ID   = 270408
ELEMENT_SET_NO = 999
REV_AT_EPOCH   = 2888
BSTAR          = .20002023E-3
MEAN_MOTION_DOT = .345E-5
MEAN_MOTION_DDOT = 0

CCSDS_OMM_VERS = 2.0
CREATION_DATE  = 
ORIGINATOR     = 

OBJECT_NAME    = UNKNOWN
OBJECT_ID      = 
CENTER_NAME    = EARTH
REF_FRAME      = TEME
TIME_SYSTEM    = UTC
MEAN_ELEMENT_THEORY = SGP/SGP4

EPOCH          = 2026-02-17T13:38:14.545824
MEAN_MOTION    = 14.70979010
ECCENTRICITY   = .01405643
INCLINATION    = 88.7431
RA_OF_ASC_NODE = 265.2146
ARG_OF_PERICENTER = 241.4179
MEAN_ANOMALY   = 117.2836

EPHEMERIS_TYPE = 0
CLASSIFICATION_TYPE = U
NORAD_CAT_ID   = 270413
ELEMENT_SET_NO = 999
REV_AT_EPOCH   = 8170
BSTAR          = .432226E-3
MEAN_MOTION_DOT = .3112E-4
MEAN_MOTION_DDOT = 0

CCSDS_OMM_VERS = 2.0
CREATION_DATE  = 
ORIGINATOR     = 

OBJECT_NAME    = UNKNOWN
OBJECT_ID      = 
CENTER_NAME    = EARTH
REF_FRAME      = TEME
TIME_SYSTEM    = UTC
MEAN_ELEMENT_THEORY = SGP/SGP4

EPOCH          = 2026-02-17T13:08:10.212288
MEAN_MOTION    = 14.67632570
ECCENTRICITY   = .01259854
INCLINATION    = 88.4802
RA_OF_ASC_NODE = 247.8383
ARG_OF_PERICENTER = 223.6506
MEAN_ANOMALY   = 135.4694

EPHEMERIS_TYPE = 0
CLASSIFICATION_TYPE = U
NORAD_CAT_ID   = 270425
ELEMENT_SET_NO = 999
REV_AT_EPOCH   = 7986
BSTAR          = .13595153E-2
MEAN_MOTION_DOT = .8733E-4
MEAN_MOTION_DDOT = 0

CCSDS_OMM_VERS = 2.0
CREATION_DATE  = 
ORIGINATOR     = 

OBJECT_NAME    = UNKNOWN
OBJECT_ID      = 
CENTER_NAME    = EARTH
REF_FRAME      = TEME
TIME_SYSTEM    = UTC
MEAN_ELEMENT_THEORY = SGP/SGP4

EPOCH          = 2026-02-16T20:51:17.029440
MEAN_MOTION    = 14.34406158
ECCENTRICITY   = .00127515
INCLINATION    = 87.8678
RA_OF_ASC_NODE = 211.5681
ARG_OF_PERICENTER = 240.5249
MEAN_ANOMALY   = 119.4677

EPHEMERIS_TYPE = 0
CLASSIFICATION_TYPE = U
NORAD_CAT_ID   = 270429
ELEMENT_SET_NO = 999
REV_AT_EPOCH   = 7815
BSTAR          = .11117042E-2
MEAN_MOTION_DOT = .3147E-4
MEAN_MOTION_DDOT = 0

